[{"OBJECT_NAME":"STARLINK-4676","OBJECT_ID":"2022-104L","EPOCH":"2026-03-09T17:21:41.748768","MEAN_MOTION":15.08834109,"ECCENTRICITY":0.00012692,"INCLINATION":53.2171,"RA_OF_ASC_NODE":243.7109,"ARG_OF_PERICENTER":96.3117,"MEAN_ANOMALY":263.802,"EPHEMERIS_TYPE":0,"CLASSIFICATION_TYPE":"U","NORAD_CAT_ID":53598,"ELEMENT_SET_NO":999,"REV_AT_EPOCH":19562,"BSTAR":1.301145e-5,"MEAN_MOTION_DOT":-8.1e-7,"MEAN_MOTION_DDOT":0},{"OBJECT_NAME":"OBJECT C","OBJECT_ID":"2025-013C","EPOCH":"2026-03-09T23:45:12.010176","MEAN_MOTION":15.10546453,"ECCENTRICITY":0.00141064,"INCLINATION":97.6424,"RA_OF_ASC_NODE":238.1264,"ARG_OF_PERICENTER":358.7826,"MEAN_ANOMALY":1.3366,"EPHEMERIS_TYPE":0,"CLASSIFICATION_TYPE":"U","NORAD_CAT_ID":62731,"ELEMENT_SET_NO":999,"REV_AT_EPOCH":6235,"BSTAR":0.00030324361,"MEAN_MOTION_DOT":4.947e-5,"MEAN_MOTION_DDOT":0}]
